JILIN-1 GAOFEN 03D51    
1 54252U 22155B   26188.51881227  .00042679  00000+0  44818-3 0  9997
2 54252  97.6250 334.9220 0003968 260.8878  99.1932 15.64235853202927
JILIN-1 GAOFEN 03D53    
1 54253U 22155C   26188.57510791  .00023259  00000+0  35999-3 0  9992
2 54253  97.6238 330.3114 0004614 284.2420  75.8320 15.54058006202652
JILIN-1 GAOFEN 03D54    
1 54254U 22155D   26186.25042549  .04646595  26402-5  79772-3 0  9992
2 54254  97.6143 342.1130 0012127 265.6441  94.3468 16.32834755203202
JILIN-1 GAOFEN 03D52    
1 54255U 22155E   26188.55750782  .00035971  00000+0  42069-3 0  9998
2 54255  97.6222 333.2118 0003328 280.3178  79.7704 15.61497849202885
JILIN-1 GAOFEN 03D50    
1 54690U 22167J   26188.53630565  .00007713  00000+0  22995-3 0  9997
2 54690  97.6852 357.2183 0005840  45.8429 314.3292 15.34950585198479
JILIN-1 GAOFEN 03D47    
1 54692U 22167L   26188.53663473  .00007385  00000+0  22518-3 0  9999
2 54692  97.6950 358.9553 0008356  53.7307 306.4706 15.34237673198464
JILIN-1 GAOFEN 03D49    
1 54694U 22167N   26188.50554749  .00009015  00000+0  24403-3 0  9990
2 54694  97.6827 359.5477 0006504  71.8991 288.2961 15.37913181198619
JILIN-1 GAOFEN 03D48    
1 54695U 22167P   26188.53248287  .00007893  00000+0  22983-3 0  9994
2 54695  97.6898 358.9216 0007031  54.2717 305.9179 15.35678409198515
JILIN GAOFEN OBJECT A   
1 68691U 26080A   26187.77966256  .00003644  00000+0  23333-3 0  9991
2 68691  97.6601 263.2709 0011907   4.6722 355.4615 15.09144054 12611
JILIN GAOFEN OBJECT B   
1 68692U 26080B   26188.49053043  .00004016  00000+0  25708-3 0  9995
2 68692  97.6587 263.9972 0015476 340.8898  19.1748 15.09058604 12726
JILIN GAOFEN OBJECT C   
1 68693U 26080C   26187.84459345  .00003832  00000+0  24525-3 0  9990
2 68693  97.6588 263.3208 0012730 345.3761  14.7097 15.09128172 12628
JILIN GAOFEN OBJECT D   
1 68694U 26080D   26188.49064885  .00003858  00000+0  24794-3 0  9990
2 68694  97.6652 264.0662 0017159 352.6568   7.4406 15.08914698 12706
JILIN GAOFEN OBJECT E   
1 68695U 26080E   26188.47379046  .00003433  00000+0  21964-3 0  9992
2 68695  97.6635 264.0685 0013135   5.1430 354.9931 15.09208957 12686
JILIN GAOFEN OBJECT F   
1 68696U 26080F   26188.47262795  .00003408  00000+0  21819-3 0  9996
2 68696  97.6607 264.0391 0014254  10.7182 349.4348 15.09173193 12683
JILIN GAOFEN OBJECT G   
1 68697U 26080G   26188.52496396  .00003033  00000+0  19474-3 0  9997
2 68697  97.6649 264.1713 0014112   3.8930 356.2406 15.09157165 12699
JILIN GAOFEN OBJECT H   
1 68698U 26080H   26182.82007068  .00007709  00000+0  48996-3 0  9994
2 68698  97.6647 258.4665 0015405  23.9908 336.2035 15.09020248 11836
