{"fetched_at":"2026-07-07T18:29:33.473Z","source":"https://celestrak.org/NORAD/elements/gp.php?NAME=JILIN&FORMAT=JSON","constellation":"jilin-1-gaofen","records":[{"OBJECT_NAME":"JILIN-1 GAOFEN 03D51","OBJECT_ID":"2022-155B","EPOCH":"2026-07-07T12:27:05.380128","CLASSIFICATION_TYPE":"U","MEAN_MOTION":15.64235853,"ECCENTRICITY":0.0003968,"INCLINATION":97.625,"RA_OF_ASC_NODE":334.922,"ARG_OF_PERICENTER":260.8878,"MEAN_ANOMALY":99.1932,"EPHEMERIS_TYPE":0,"NORAD_CAT_ID":54252,"ELEMENT_SET_NO":999,"REV_AT_EPOCH":20292,"BSTAR":0.00044818,"MEAN_MOTION_DOT":0.00042679,"MEAN_MOTION_DDOT":0},{"OBJECT_NAME":"JILIN-1 GAOFEN 03D53","OBJECT_ID":"2022-155C","EPOCH":"2026-07-07T13:48:09.323424","CLASSIFICATION_TYPE":"U","MEAN_MOTION":15.54058006,"ECCENTRICITY":0.0004614,"INCLINATION":97.6238,"RA_OF_ASC_NODE":330.3114,"ARG_OF_PERICENTER":284.242,"MEAN_ANOMALY":75.832,"EPHEMERIS_TYPE":0,"NORAD_CAT_ID":54253,"ELEMENT_SET_NO":999,"REV_AT_EPOCH":20265,"BSTAR":0.00035999,"MEAN_MOTION_DOT":0.00023259,"MEAN_MOTION_DDOT":0},{"OBJECT_NAME":"JILIN-1 GAOFEN 03D54","OBJECT_ID":"2022-155D","EPOCH":"2026-07-05T06:00:36.762336","CLASSIFICATION_TYPE":"U","MEAN_MOTION":16.32834755,"ECCENTRICITY":0.00121273,"INCLINATION":97.6143,"RA_OF_ASC_NODE":342.113,"ARG_OF_PERICENTER":265.6441,"MEAN_ANOMALY":94.3468,"EPHEMERIS_TYPE":0,"NORAD_CAT_ID":54254,"ELEMENT_SET_NO":999,"REV_AT_EPOCH":20320,"BSTAR":0.00079772039,"MEAN_MOTION_DOT":0.04646595,"MEAN_MOTION_DDOT":0.000002640223},{"OBJECT_NAME":"JILIN-1 GAOFEN 03D52","OBJECT_ID":"2022-155E","EPOCH":"2026-07-07T13:22:48.675648","CLASSIFICATION_TYPE":"U","MEAN_MOTION":15.61497849,"ECCENTRICITY":0.0003328,"INCLINATION":97.6222,"RA_OF_ASC_NODE":333.2118,"ARG_OF_PERICENTER":280.3178,"MEAN_ANOMALY":79.7704,"EPHEMERIS_TYPE":0,"NORAD_CAT_ID":54255,"ELEMENT_SET_NO":999,"REV_AT_EPOCH":20288,"BSTAR":0.00042069,"MEAN_MOTION_DOT":0.00035971,"MEAN_MOTION_DDOT":0},{"OBJECT_NAME":"JILIN-1 GAOFEN 03D50","OBJECT_ID":"2022-167J","EPOCH":"2026-07-07T12:52:16.808160","CLASSIFICATION_TYPE":"U","MEAN_MOTION":15.34950585,"ECCENTRICITY":0.000584,"INCLINATION":97.6852,"RA_OF_ASC_NODE":357.2183,"ARG_OF_PERICENTER":45.8429,"MEAN_ANOMALY":314.3292,"EPHEMERIS_TYPE":0,"NORAD_CAT_ID":54690,"ELEMENT_SET_NO":999,"REV_AT_EPOCH":19847,"BSTAR":0.00022995,"MEAN_MOTION_DOT":0.00007713,"MEAN_MOTION_DDOT":0},{"OBJECT_NAME":"JILIN-1 GAOFEN 03D47","OBJECT_ID":"2022-167L","EPOCH":"2026-07-07T12:52:45.240672","CLASSIFICATION_TYPE":"U","MEAN_MOTION":15.34237673,"ECCENTRICITY":0.0008356,"INCLINATION":97.695,"RA_OF_ASC_NODE":358.9553,"ARG_OF_PERICENTER":53.7307,"MEAN_ANOMALY":306.4706,"EPHEMERIS_TYPE":0,"NORAD_CAT_ID":54692,"ELEMENT_SET_NO":999,"REV_AT_EPOCH":19846,"BSTAR":0.00022518,"MEAN_MOTION_DOT":0.00007385,"MEAN_MOTION_DDOT":0},{"OBJECT_NAME":"JILIN-1 GAOFEN 03D49","OBJECT_ID":"2022-167N","EPOCH":"2026-07-07T12:07:59.303136","CLASSIFICATION_TYPE":"U","MEAN_MOTION":15.37913181,"ECCENTRICITY":0.0006504,"INCLINATION":97.6827,"RA_OF_ASC_NODE":359.5477,"ARG_OF_PERICENTER":71.8991,"MEAN_ANOMALY":288.2961,"EPHEMERIS_TYPE":0,"NORAD_CAT_ID":54694,"ELEMENT_SET_NO":999,"REV_AT_EPOCH":19861,"BSTAR":0.00024403,"MEAN_MOTION_DOT":0.00009015,"MEAN_MOTION_DDOT":0},{"OBJECT_NAME":"JILIN-1 GAOFEN 03D48","OBJECT_ID":"2022-167P","EPOCH":"2026-07-07T12:46:46.519968","CLASSIFICATION_TYPE":"U","MEAN_MOTION":15.35678409,"ECCENTRICITY":0.0007031,"INCLINATION":97.6898,"RA_OF_ASC_NODE":358.9216,"ARG_OF_PERICENTER":54.2717,"MEAN_ANOMALY":305.9179,"EPHEMERIS_TYPE":0,"NORAD_CAT_ID":54695,"ELEMENT_SET_NO":999,"REV_AT_EPOCH":19851,"BSTAR":0.00022983,"MEAN_MOTION_DOT":0.00007893,"MEAN_MOTION_DDOT":0},{"OBJECT_NAME":"JILIN GAOFEN OBJECT A","OBJECT_ID":"2026-080A","EPOCH":"2026-07-06T18:42:42.845184","CLASSIFICATION_TYPE":"U","MEAN_MOTION":15.09144054,"ECCENTRICITY":0.0011907,"INCLINATION":97.6601,"RA_OF_ASC_NODE":263.2709,"ARG_OF_PERICENTER":4.6722,"MEAN_ANOMALY":355.4615,"EPHEMERIS_TYPE":0,"NORAD_CAT_ID":68691,"ELEMENT_SET_NO":999,"REV_AT_EPOCH":1261,"BSTAR":0.00023333,"MEAN_MOTION_DOT":0.00003644,"MEAN_MOTION_DDOT":0},{"OBJECT_NAME":"JILIN GAOFEN OBJECT B","OBJECT_ID":"2026-080B","EPOCH":"2026-07-07T11:46:21.829152","CLASSIFICATION_TYPE":"U","MEAN_MOTION":15.09058604,"ECCENTRICITY":0.0015476,"INCLINATION":97.6587,"RA_OF_ASC_NODE":263.9972,"ARG_OF_PERICENTER":340.8898,"MEAN_ANOMALY":19.1748,"EPHEMERIS_TYPE":0,"NORAD_CAT_ID":68692,"ELEMENT_SET_NO":999,"REV_AT_EPOCH":1272,"BSTAR":0.00025708,"MEAN_MOTION_DOT":0.00004016,"MEAN_MOTION_DDOT":0},{"OBJECT_NAME":"JILIN GAOFEN OBJECT C","OBJECT_ID":"2026-080C","EPOCH":"2026-07-06T20:16:12.874080","CLASSIFICATION_TYPE":"U","MEAN_MOTION":15.09128172,"ECCENTRICITY":0.001273,"INCLINATION":97.6588,"RA_OF_ASC_NODE":263.3208,"ARG_OF_PERICENTER":345.3761,"MEAN_ANOMALY":14.7097,"EPHEMERIS_TYPE":0,"NORAD_CAT_ID":68693,"ELEMENT_SET_NO":999,"REV_AT_EPOCH":1262,"BSTAR":0.00024525,"MEAN_MOTION_DOT":0.00003832,"MEAN_MOTION_DDOT":0},{"OBJECT_NAME":"JILIN GAOFEN OBJECT D","OBJECT_ID":"2026-080D","EPOCH":"2026-07-07T11:46:32.060640","CLASSIFICATION_TYPE":"U","MEAN_MOTION":15.08914698,"ECCENTRICITY":0.0017159,"INCLINATION":97.6652,"RA_OF_ASC_NODE":264.0662,"ARG_OF_PERICENTER":352.6568,"MEAN_ANOMALY":7.4406,"EPHEMERIS_TYPE":0,"NORAD_CAT_ID":68694,"ELEMENT_SET_NO":999,"REV_AT_EPOCH":1270,"BSTAR":0.00024794,"MEAN_MOTION_DOT":0.00003858,"MEAN_MOTION_DDOT":0},{"OBJECT_NAME":"JILIN GAOFEN OBJECT E","OBJECT_ID":"2026-080E","EPOCH":"2026-07-07T11:22:15.495744","CLASSIFICATION_TYPE":"U","MEAN_MOTION":15.09208957,"ECCENTRICITY":0.0013135,"INCLINATION":97.6635,"RA_OF_ASC_NODE":264.0685,"ARG_OF_PERICENTER":5.143,"MEAN_ANOMALY":354.9931,"EPHEMERIS_TYPE":0,"NORAD_CAT_ID":68695,"ELEMENT_SET_NO":999,"REV_AT_EPOCH":1268,"BSTAR":0.00021964,"MEAN_MOTION_DOT":0.00003433,"MEAN_MOTION_DDOT":0},{"OBJECT_NAME":"JILIN GAOFEN OBJECT F","OBJECT_ID":"2026-080F","EPOCH":"2026-07-07T11:20:35.054880","CLASSIFICATION_TYPE":"U","MEAN_MOTION":15.09173193,"ECCENTRICITY":0.0014254,"INCLINATION":97.6607,"RA_OF_ASC_NODE":264.0391,"ARG_OF_PERICENTER":10.7182,"MEAN_ANOMALY":349.4348,"EPHEMERIS_TYPE":0,"NORAD_CAT_ID":68696,"ELEMENT_SET_NO":999,"REV_AT_EPOCH":1268,"BSTAR":0.00021819,"MEAN_MOTION_DOT":0.00003408,"MEAN_MOTION_DDOT":0},{"OBJECT_NAME":"JILIN GAOFEN OBJECT G","OBJECT_ID":"2026-080G","EPOCH":"2026-07-07T12:35:56.886144","CLASSIFICATION_TYPE":"U","MEAN_MOTION":15.09157165,"ECCENTRICITY":0.0014112,"INCLINATION":97.6649,"RA_OF_ASC_NODE":264.1713,"ARG_OF_PERICENTER":3.893,"MEAN_ANOMALY":356.2406,"EPHEMERIS_TYPE":0,"NORAD_CAT_ID":68697,"ELEMENT_SET_NO":999,"REV_AT_EPOCH":1269,"BSTAR":0.00019474,"MEAN_MOTION_DOT":0.00003033,"MEAN_MOTION_DDOT":0},{"OBJECT_NAME":"JILIN GAOFEN OBJECT H","OBJECT_ID":"2026-080H","EPOCH":"2026-07-01T19:40:54.106752","CLASSIFICATION_TYPE":"U","MEAN_MOTION":15.09020248,"ECCENTRICITY":0.00154058,"INCLINATION":97.6647,"RA_OF_ASC_NODE":258.4665,"ARG_OF_PERICENTER":23.9908,"MEAN_ANOMALY":336.2035,"EPHEMERIS_TYPE":0,"NORAD_CAT_ID":68698,"ELEMENT_SET_NO":999,"REV_AT_EPOCH":1183,"BSTAR":0.00048995825,"MEAN_MOTION_DOT":0.00007709,"MEAN_MOTION_DDOT":0}]}
